{"type": "FeatureCollection", "features": [ {"type": "Feature", "properties": {"norad_id": 43437, "name": "SENTINEL-3B", "group": "resource", "lat": -47.85985522379877, "lon": 70.11900777033249, "alt_km": 810.3638173888303, "timestamp": "2025-12-21T09:37:22.306044+00:00", "meta": {"OBJECT_NAME": "SENTINEL-3B", "OBJECT_ID": "2018-039A", "EPOCH": "2025-12-21T03:07:03.945792", "MEAN_MOTION": 14.26736979, "ECCENTRICITY": 0.0001631, "INCLINATION": 98.6257, "RA_OF_ASC_NODE": 60.1946, "ARG_OF_PERICENTER": 93.5044, "MEAN_ANOMALY": 266.6323, "EPHEMERIS_TYPE": 0, "CLASSIFICATION_TYPE": "U", "NORAD_CAT_ID": 43437, "ELEMENT_SET_NO": 999, "REV_AT_EPOCH": 39873, "BSTAR": 6.0795e-05, "MEAN_MOTION_DOT": 1.03e-06, "MEAN_MOTION_DDOT": 0}, "tle": {"line1": "1 43437U 18039A   25355.12990678  .00000103  00000+0  60795-4 0  9998", "line2": "2 43437  98.6257  60.1946 0001631  93.5044 266.6323 14.26736979398734"}}, "geometry": {"type": "Point", "coordinates": [70.11900777033249, -47.85985522379877]}}, {"type": "Feature", "properties": {"norad_id": 43461, "name": "GAOFEN-5 01", "group": "resource", "lat": -81.51964898420866, "lon": 54.2010507278137, "alt_km": 698.8091937866393, "timestamp": "2025-12-21T09:37:22.306055+00:00", "meta": {"OBJECT_NAME": "GAOFEN-5 01", "OBJECT_ID": "2018-043A", "EPOCH": "2025-12-21T03:27:39.430368", "MEAN_MOTION": 14.60418022, "ECCENTRICITY": 5.16e-05, "INCLINATION": 98.4338, "RA_OF_ASC_NODE": 318.2586, "ARG_OF_PERICENTER": 283.9485, "MEAN_ANOMALY": 76.1657, "EPHEMERIS_TYPE": 0, "CLASSIFICATION_TYPE": "U", "NORAD_CAT_ID": 43461, "ELEMENT_SET_NO": 999, "REV_AT_EPOCH": 40570, "BSTAR": 7.4418e-05, "MEAN_MOTION_DOT": 3.12e-06, "MEAN_MOTION_DDOT": 0}, "tle": {"line1": "1 43461U 18043A   25355.14420637  .00000312  00000+0  74418-4 0  9994", "line2": "2 43461  98.4338 318.2586 0000516 283.9485  76.1657 14.60418022405705"}}, "geometry": {"type": "Point", "coordinates": [54.2010507278137, -81.51964898420866]}}, {"type": "Feature", "properties": {"norad_id": 43484, "name": "GAOFEN-6", "group": "resource", "lat": 46.69455394124075, "lon": 51.011937624056884, "alt_km": 627.1929328699116, "timestamp": "2025-12-21T09:37:22.306064+00:00", "meta": {"OBJECT_NAME": "GAOFEN-6", "OBJECT_ID": "2018-048A", "EPOCH": "2025-12-21T04:31:51.403296", "MEAN_MOTION": 14.76578604, "ECCENTRICITY": 0.0012802, "INCLINATION": 97.8027, "RA_OF_ASC_NODE": 59.1722, "ARG_OF_PERICENTER": 38.7061, "MEAN_ANOMALY": 321.5064, "EPHEMERIS_TYPE": 0, "CLASSIFICATION_TYPE": "U", "NORAD_CAT_ID": 43484, "ELEMENT_SET_NO": 999, "REV_AT_EPOCH": 40712, "BSTAR": 2.1765e-05, "MEAN_MOTION_DOT": 1.03e-06, "MEAN_MOTION_DDOT": 0}, "tle": {"line1": "1 43484U 18048A   25355.18878939  .00000103  00000+0  21765-4 0  9995", "line2": "2 43484  97.8027  59.1722 0012802  38.7061 321.5064 14.76578604407125"}}, "geometry": {"type": "Point", "coordinates": [51.011937624056884, 46.69455394124075]}}, {"type": "Feature", "properties": {"norad_id": 43585, "name": "GAOFEN-11 01", "group": "resource", "lat": -40.70712957996447, "lon": 64.46918037924716, "alt_km": 423.3170164650728, "timestamp": "2025-12-21T09:37:22.306074+00:00", "meta": {"OBJECT_NAME": "GAOFEN-11 01", "OBJECT_ID": "2018-063A", "EPOCH": "2025-12-21T05:08:59.864928", "MEAN_MOTION": 15.4944091, "ECCENTRICITY": 0.0003912, "INCLINATION": 97.1555, "RA_OF_ASC_NODE": 58.0793, "ARG_OF_PERICENTER": 268.6551, "MEAN_ANOMALY": 91.4252, "EPHEMERIS_TYPE": 0, "CLASSIFICATION_TYPE": "U", "NORAD_CAT_ID": 43585, "ELEMENT_SET_NO": 999, "REV_AT_EPOCH": 41273, "BSTAR": 0.00020605, "MEAN_MOTION_DOT": 0.00011236, "MEAN_MOTION_DDOT": 0}, "tle": {"line1": "1 43585U 18063A   25355.21458177  .00011236  00000+0  20605-3 0  9996", "line2": "2 43585  97.1555  58.0793 0003912 268.6551  91.4252 15.49440910412736"}}, "geometry": {"type": "Point", "coordinates": [64.46918037924716, -40.70712957996447]}}, {"type": "Feature", "properties": {"norad_id": 43613, "name": "ICESAT-2", "group": "resource", "lat": 62.911583721188464, "lon": 67.00139560380944, "alt_km": 473.05237312564805, "timestamp": "2025-12-21T09:37:22.306085+00:00", "meta": {"OBJECT_NAME": "ICESAT-2", "OBJECT_ID": "2018-070A", "EPOCH": "2025-12-21T02:49:36.554016", "MEAN_MOTION": 15.28242403, "ECCENTRICITY": 0.0002915, "INCLINATION": 92.0046, "RA_OF_ASC_NODE": 242.9983, "ARG_OF_PERICENTER": 120.4848, "MEAN_ANOMALY": 239.6689, "EPHEMERIS_TYPE": 0, "CLASSIFICATION_TYPE": "U", "NORAD_CAT_ID": 43613, "ELEMENT_SET_NO": 999, "REV_AT_EPOCH": 40526, "BSTAR": 0.00031396, "MEAN_MOTION_DOT": 8.637e-05, "MEAN_MOTION_DDOT": 0}, "tle": {"line1": "1 43613U 18070A   25355.11778419  .00008637  00000+0  31396-3 0  9999", "line2": "2 43613  92.0046 242.9983 0002915 120.4848 239.6689 15.28242403405262"}}, "geometry": {"type": "Point", "coordinates": [67.00139560380944, 62.911583721188464]}}, {"type": "Feature", "properties": {"norad_id": 43719, "name": "HYSIS", "group": "resource", "lat": 31.885343243188377, "lon": -116.63827737106566, "alt_km": 631.7916400563718, "timestamp": "2025-12-21T09:37:22.306094+00:00", "meta": {"OBJECT_NAME": "HYSIS", "OBJECT_ID": "2018-096A", "EPOCH": "2025-12-21T04:05:06.468000", "MEAN_MOTION": 14.78666194, "ECCENTRICITY": 0.0001003, "INCLINATION": 98.0093, "RA_OF_ASC_NODE": 58.1071, "ARG_OF_PERICENTER": 53.0776, "MEAN_ANOMALY": 307.0527, "EPHEMERIS_TYPE": 0, "CLASSIFICATION_TYPE": "U", "NORAD_CAT_ID": 43719, "ELEMENT_SET_NO": 999, "REV_AT_EPOCH": 38111, "BSTAR": 0.00010464, "MEAN_MOTION_DOT": 7.15e-06, "MEAN_MOTION_DDOT": 0}, "tle": {"line1": "1 43719U 18096A   25355.17021375  .00000715  00000+0  10464-3 0  9994", "line2": "2 43719  98.0093  58.1071 0001003  53.0776 307.0527 14.78666194381119"}}, "geometry": {"type": "Point", "coordinates": [-116.63827737106566, 31.885343243188377]}}, {"type": "Feature", "properties": {"norad_id": 43783, "name": "KAZSTSAT", "group": "resource", "lat": -51.38549920655294, "lon": 39.64600000357937, "alt_km": 571.8199924798828, "timestamp": "2025-12-21T09:37:22.306104+00:00", "meta": {"OBJECT_NAME": "KAZSTSAT", "OBJECT_ID": "2018-099AB", "EPOCH": "2025-12-21T01:50:44.888352", "MEAN_MOTION": 14.99364891, "ECCENTRICITY": 0.0006024, "INCLINATION": 97.4527, "RA_OF_ASC_NODE": 29.903, "ARG_OF_PERICENTER": 292.687, "MEAN_ANOMALY": 67.3717, "EPHEMERIS_TYPE": 0, "CLASSIFICATION_TYPE": "U", "NORAD_CAT_ID": 43783, "ELEMENT_SET_NO": 999, "REV_AT_EPOCH": 38461, "BSTAR": 1.8044e-05, "MEAN_MOTION_DOT": 1.65e-06, "MEAN_MOTION_DDOT": 0}, "tle": {"line1": "1 43783U 18099AB  25355.07690843  .00000165  00000+0  18044-4 0  9991", "line2": "2 43783  97.4527  29.9030 0006024 292.6870  67.3717 14.99364891384617"}}, "geometry": {"type": "Point", "coordinates": [39.64600000357937, -51.38549920655294]}}, {"type": "Feature", "properties": {"norad_id": 43831, "name": "SAUDISAT 5A", "group": "resource", "lat": 76.67137016972553, "lon": -91.64256558624018, "alt_km": 476.4707007274901, "timestamp": "2025-12-21T09:37:22.306114+00:00", "meta": {"OBJECT_NAME": "SAUDISAT 5A", "OBJECT_ID": "2018-102A", "EPOCH": "2025-12-21T04:27:36.283968", "MEAN_MOTION": 15.25751374, "ECCENTRICITY": 0.0011359, "INCLINATION": 97.3342, "RA_OF_ASC_NODE": 55.2141, "ARG_OF_PERICENTER": 50.2074, "MEAN_ANOMALY": 310.0163, "EPHEMERIS_TYPE": 0, "CLASSIFICATION_TYPE": "U", "NORAD_CAT_ID": 43831, "ELEMENT_SET_NO": 999, "REV_AT_EPOCH": 38851, "BSTAR": 0.00017586, "MEAN_MOTION_DOT": 4.423e-05, "MEAN_MOTION_DDOT": 0}, "tle": {"line1": "1 43831U 18102A   25355.18583662  .00004423  00000+0  17586-3 0  9992", "line2": "2 43831  97.3342  55.2141 0011359  50.2074 310.0163 15.25751374388513"}}, "geometry": {"type": "Point", "coordinates": [-91.64256558624018, 76.67137016972553]}}, {"type": "Feature", "properties": {"norad_id": 43833, "name": "SAUDISAT 5B", "group": "resource", "lat": 15.438285027513487, "lon": -119.7796771929241, "alt_km": 491.57251698069194, "timestamp": "2025-12-21T09:37:22.306124+00:00", "meta": {"OBJECT_NAME": "SAUDISAT 5B", "OBJECT_ID": "2018-102C", "EPOCH": "2025-12-21T04:11:06.851904", "MEAN_MOTION": 15.26099723, "ECCENTRICITY": 0.0012078, "INCLINATION": 97.3437, "RA_OF_ASC_NODE": 57.9566, "ARG_OF_PERICENTER": 52.2758, "MEAN_ANOMALY": 307.9574, "EPHEMERIS_TYPE": 0, "CLASSIFICATION_TYPE": "U", "NORAD_CAT_ID": 43833, "ELEMENT_SET_NO": 999, "REV_AT_EPOCH": 38862, "BSTAR": 0.0001603, "MEAN_MOTION_DOT": 4.069e-05, "MEAN_MOTION_DDOT": 0}, "tle": {"line1": "1 43833U 18102C   25355.17438486  .00004069  00000+0  16030-3 0  9995", "line2": "2 43833  97.3437  57.9566 0012078  52.2758 307.9574 15.26099723388627"}}, "geometry": {"type": "Point", "coordinates": [-119.7796771929241, 15.438285027513487]}}, {"type": "Feature", "properties": {"norad_id": 44622, "name": "GAOFEN-10R", "group": "resource", "lat": -21.140775225293762, "lon": 119.81255323396908, "alt_km": 630.8507548894668, "timestamp": "2025-12-21T09:37:22.306135+00:00", "meta": {"OBJECT_NAME": "GAOFEN-10R", "OBJECT_ID": "2019-066A", "EPOCH": "2025-12-21T03:51:34.507584", "MEAN_MOTION": 14.82817641, "ECCENTRICITY": 0.0007304, "INCLINATION": 98.029, "RA_OF_ASC_NODE": 302.7003, "ARG_OF_PERICENTER": 17.4507, "MEAN_ANOMALY": 342.6956, "EPHEMERIS_TYPE": 0, "CLASSIFICATION_TYPE": "U", "NORAD_CAT_ID": 44622, "ELEMENT_SET_NO": 999, "REV_AT_EPOCH": 33599, "BSTAR": 0.00014088, "MEAN_MOTION_DOT": 1.086e-05, "MEAN_MOTION_DDOT": 0}, "tle": {"line1": "1 44622U 19066A   25355.16081606  .00001086  00000+0  14088-3 0  9996", "line2": "2 44622  98.0290 302.7003 0007304  17.4507 342.6956 14.82817641335997"}}, "geometry": {"type": "Point", "coordinates": [119.81255323396908, -21.140775225293762]}}]}